{
  "links" : {
    "next" : "https://api.nasa.gov/neo/rest/v1/feed?start_date=2008-01-16&end_date=2008-01-16&detailed=true&api_key=t0TVs3DtDT2H8Oy2Zy8m2eVrNsAVKAexjcZXUckd",
    "prev" : "https://api.nasa.gov/neo/rest/v1/feed?start_date=2008-01-14&end_date=2008-01-14&detailed=true&api_key=t0TVs3DtDT2H8Oy2Zy8m2eVrNsAVKAexjcZXUckd",
    "self" : "https://api.nasa.gov/neo/rest/v1/feed?start_date=2008-01-15&end_date=2008-01-15&detailed=true&api_key=t0TVs3DtDT2H8Oy2Zy8m2eVrNsAVKAexjcZXUckd"
  },
  "element_count" : 4,
  "near_earth_objects" : {
    "2008-01-15" : [ {
      "links" : {
        "self" : "https://api.nasa.gov/neo/rest/v1/neo/3399122?api_key=t0TVs3DtDT2H8Oy2Zy8m2eVrNsAVKAexjcZXUckd"
      },
      "neo_reference_id" : "3399122",
      "name" : "(2008 AH4)",
      "nasa_jpl_url" : "http://ssd.jpl.nasa.gov/sbdb.cgi?sstr=3399122",
      "absolute_magnitude_h" : 21.6,
      "estimated_diameter" : {
        "kilometers" : {
          "estimated_diameter_min" : 0.1272198785,
          "estimated_diameter_max" : 0.2844722965
        },
        "meters" : {
          "estimated_diameter_min" : 127.2198785394,
          "estimated_diameter_max" : 284.4722965033
        },
        "miles" : {
          "estimated_diameter_min" : 0.0790507431,
          "estimated_diameter_max" : 0.1767628354
        },
        "feet" : {
          "estimated_diameter_min" : 417.3880663071,
          "estimated_diameter_max" : 933.3080892598
        }
      },
      "is_potentially_hazardous_asteroid" : false,
      "close_approach_data" : [ {
        "close_approach_date" : "2008-01-15",
        "epoch_date_close_approach" : 1200384000000,
        "relative_velocity" : {
          "kilometers_per_second" : "39.1442987531",
          "kilometers_per_hour" : "140919.4755111172",
          "miles_per_hour" : "87561.8818807828"
        },
        "miss_distance" : {
          "astronomical" : "0.1282766361",
          "lunar" : "49.8996086121",
          "kilometers" : "19189912",
          "miles" : "11924058"
        },
        "orbiting_body" : "Earth"
      } ],
      "orbital_data" : {
        "orbit_id" : "9",
        "orbit_determination_date" : "2017-04-06 09:04:46",
        "orbit_uncertainty" : "9",
        "minimum_orbit_intersection" : ".0904708",
        "jupiter_tisserand_invariant" : "2.663",
        "epoch_osculation" : "2454479.5",
        "eccentricity" : ".6369682986049595",
        "semi_major_axis" : "2.294224548483655",
        "inclination" : "67.31014304048294",
        "ascending_node_longitude" : "117.2373547350618",
        "orbital_period" : "1269.265017575927",
        "perihelion_distance" : ".8328762412182898",
        "perihelion_argument" : "66.32717178160355",
        "aphelion_distance" : "3.75557285574902",
        "perihelion_time" : "2454524.484145049217",
        "mean_anomaly" : "347.2412049544654",
        "mean_motion" : ".2836287103283889",
        "equinox" : "J2000"
      }
    }, {
      "links" : {
        "self" : "https://api.nasa.gov/neo/rest/v1/neo/2090403?api_key=t0TVs3DtDT2H8Oy2Zy8m2eVrNsAVKAexjcZXUckd"
      },
      "neo_reference_id" : "2090403",
      "name" : "90403 (2003 YE45)",
      "nasa_jpl_url" : "http://ssd.jpl.nasa.gov/sbdb.cgi?sstr=2090403",
      "absolute_magnitude_h" : 17.6,
      "estimated_diameter" : {
        "kilometers" : {
          "estimated_diameter_min" : 0.8027031673,
          "estimated_diameter_max" : 1.7948988478
        },
        "meters" : {
          "estimated_diameter_min" : 802.7031672829,
          "estimated_diameter_max" : 1794.8988477988
        },
        "miles" : {
          "estimated_diameter_min" : 0.4987764698,
          "estimated_diameter_max" : 1.115298092
        },
        "feet" : {
          "estimated_diameter_min" : 2633.5406593483,
          "estimated_diameter_max" : 5888.7759358124
        }
      },
      "is_potentially_hazardous_asteroid" : true,
      "close_approach_data" : [ {
        "close_approach_date" : "2008-01-15",
        "epoch_date_close_approach" : 1200384000000,
        "relative_velocity" : {
          "kilometers_per_second" : "11.3076062147",
          "kilometers_per_hour" : "40707.3823728685",
          "miles_per_hour" : "25293.9843416304"
        },
        "miss_distance" : {
          "astronomical" : "0.4012811833",
          "lunar" : "156.0983734131",
          "kilometers" : "60030812",
          "miles" : "37301416"
        },
        "orbiting_body" : "Earth"
      } ],
      "orbital_data" : {
        "orbit_id" : "154",
        "orbit_determination_date" : "2017-04-06 09:28:19",
        "orbit_uncertainty" : "0",
        "minimum_orbit_intersection" : ".0364095",
        "jupiter_tisserand_invariant" : "5.099",
        "epoch_osculation" : "2458000.5",
        "eccentricity" : ".2801509894021531",
        "semi_major_axis" : "1.234490119116537",
        "inclination" : "19.00452568992117",
        "ascending_node_longitude" : "286.2729594587281",
        "orbital_period" : "500.9909192962874",
        "perihelion_distance" : ".8886464908388575",
        "perihelion_argument" : "306.8240757444374",
        "aphelion_distance" : "1.580333747394217",
        "perihelion_time" : "2458122.124740497517",
        "mean_anomaly" : "272.6033928107754",
        "mean_motion" : ".7185758985525544",
        "equinox" : "J2000"
      }
    }, {
      "links" : {
        "self" : "https://api.nasa.gov/neo/rest/v1/neo/3378732?api_key=t0TVs3DtDT2H8Oy2Zy8m2eVrNsAVKAexjcZXUckd"
      },
      "neo_reference_id" : "3378732",
      "name" : "(2007 MC4)",
      "nasa_jpl_url" : "http://ssd.jpl.nasa.gov/sbdb.cgi?sstr=3378732",
      "absolute_magnitude_h" : 21.1,
      "estimated_diameter" : {
        "kilometers" : {
          "estimated_diameter_min" : 0.160160338,
          "estimated_diameter_max" : 0.358129403
        },
        "meters" : {
          "estimated_diameter_min" : 160.1603379786,
          "estimated_diameter_max" : 358.1294030194
        },
        "miles" : {
          "estimated_diameter_min" : 0.0995189894,
          "estimated_diameter_max" : 0.2225312253
        },
        "feet" : {
          "estimated_diameter_min" : 525.4604432536,
          "estimated_diameter_max" : 1174.9652706022
        }
      },
      "is_potentially_hazardous_asteroid" : false,
      "close_approach_data" : [ {
        "close_approach_date" : "2008-01-15",
        "epoch_date_close_approach" : 1200384000000,
        "relative_velocity" : {
          "kilometers_per_second" : "12.4012526808",
          "kilometers_per_hour" : "44644.509650911",
          "miles_per_hour" : "27740.3621217008"
        },
        "miss_distance" : {
          "astronomical" : "0.1820141452",
          "lunar" : "70.8035049438",
          "kilometers" : "27228930",
          "miles" : "16919272"
        },
        "orbiting_body" : "Earth"
      } ],
      "orbital_data" : {
        "orbit_id" : "21",
        "orbit_determination_date" : "2017-04-06 09:06:19",
        "orbit_uncertainty" : "2",
        "minimum_orbit_intersection" : ".124685",
        "jupiter_tisserand_invariant" : "6.156",
        "epoch_osculation" : "2458000.5",
        "eccentricity" : ".1737516740938183",
        "semi_major_axis" : ".9722680791701382",
        "inclination" : "19.18671071212072",
        "ascending_node_longitude" : "109.3871645902877",
        "orbital_period" : "350.1688163551078",
        "perihelion_distance" : ".8033348727463456",
        "perihelion_argument" : "358.2695319210374",
        "aphelion_distance" : "1.141201285593931",
        "perihelion_time" : "2457978.487516877638",
        "mean_anomaly" : "22.63049578924806",
        "mean_motion" : "1.028075554377528",
        "equinox" : "J2000"
      }
    }, {
      "links" : {
        "self" : "https://api.nasa.gov/neo/rest/v1/neo/3775251?api_key=t0TVs3DtDT2H8Oy2Zy8m2eVrNsAVKAexjcZXUckd"
      },
      "neo_reference_id" : "3775251",
      "name" : "(2017 MD)",
      "nasa_jpl_url" : "http://ssd.jpl.nasa.gov/sbdb.cgi?sstr=3775251",
      "absolute_magnitude_h" : 24.377,
      "estimated_diameter" : {
        "kilometers" : {
          "estimated_diameter_min" : 0.0354123686,
          "estimated_diameter_max" : 0.0791844635
        },
        "meters" : {
          "estimated_diameter_min" : 35.4123686452,
          "estimated_diameter_max" : 79.184463535
        },
        "miles" : {
          "estimated_diameter_min" : 0.0220042189,
          "estimated_diameter_max" : 0.0492029293
        },
        "feet" : {
          "estimated_diameter_min" : 116.1823155459,
          "estimated_diameter_max" : 259.7915553441
        }
      },
      "is_potentially_hazardous_asteroid" : false,
      "close_approach_data" : [ {
        "close_approach_date" : "2008-01-15",
        "epoch_date_close_approach" : 1200384000000,
        "relative_velocity" : {
          "kilometers_per_second" : "8.8455750418",
          "kilometers_per_hour" : "31844.0701504637",
          "miles_per_hour" : "19786.6668109923"
        },
        "miss_distance" : {
          "astronomical" : "0.1551223158",
          "lunar" : "60.3425788879",
          "kilometers" : "23205968",
          "miles" : "14419520"
        },
        "orbiting_body" : "Earth"
      } ],
      "orbital_data" : {
        "orbit_id" : "9",
        "orbit_determination_date" : "2017-07-07 06:16:47",
        "orbit_uncertainty" : "7",
        "minimum_orbit_intersection" : ".00794174",
        "jupiter_tisserand_invariant" : "4.842",
        "epoch_osculation" : "2458000.5",
        "eccentricity" : ".4122402109513876",
        "semi_major_axis" : "1.321203326589463",
        "inclination" : "10.0709236873832",
        "ascending_node_longitude" : "260.8993102030493",
        "orbital_period" : "554.6932929178331",
        "perihelion_distance" : ".7765501885265479",
        "perihelion_argument" : "284.0651899590925",
        "aphelion_distance" : "1.865856464652379",
        "perihelion_time" : "2457863.396483057899",
        "mean_anomaly" : "88.98118424963137",
        "mean_motion" : ".6490073065536902",
        "equinox" : "J2000"
      }
    } ]
  }
}